{
    "satellites": [
        {
            "name": "starlink319",
            "title": "Starlink-319 (G11-14)",
            "tle": [
                "1 66358C 25254L   25329.11576389  .00028284  00000+0  19296-3 0  3297",
                "2 66358  53.1587   2.3968 0001325  85.5811  10.3886 15.74132343    16"
            ],
            "stdMag": 5,
            "noradId": "66358",
            "tleUrl": "http://celestrak.org/NORAD/elements/supplemental/sup-gp.php?FILE=starlink&FORMAT=tle",
            "launchDate": "2025-11-06T21:13:50.000Z",
            "active": true,
            "batch": [
                {
                    "noradId": "66358",
                    "tle": [
                        "1 66358C 25254L   25329.11576389  .00028284  00000+0  19296-3 0  3297",
                        "2 66358  53.1587   2.3968 0001325  85.5811  10.3886 15.74132343    16"
                    ]
                },
                {
                    "noradId": "66375",
                    "tle": [
                        "1 66375C 25254AD  25329.09423611  .00027964  00000+0  19077-3 0  3293",
                        "2 66375  53.1582   2.4350 0001197 115.6941 250.7892 15.74133406    10"
                    ]
                },
                {
                    "noradId": "66374",
                    "tle": [
                        "1 66374C 25254AC  25329.09701389  .00011354  00000+0  77431-4 0  3298",
                        "2 66374  53.1583   2.4251 0001153  82.4411 297.8696 15.74158524    17"
                    ]
                },
                {
                    "noradId": "66371",
                    "tle": [
                        "1 66371C 25254Z   25329.11506944  .00040636  00000+0  27721-3 0  3299",
                        "2 66371  53.1583   2.3435 0001171 108.1804  10.6926 15.74121434    16"
                    ]
                },
                {
                    "noradId": "66372",
                    "tle": [
                        "1 66372C 25254AA  25329.09284722  .00035020  00000+0  23891-3 0  3299",
                        "2 66372  53.1584   2.4587 0001259  90.2816 260.6654 15.74126389    17"
                    ]
                },
                {
                    "noradId": "66364",
                    "tle": [
                        "1 66364C 25254S   25329.11506944  .00029948  00000+0  20429-3 0  3292",
                        "2 66364  53.1585   2.3760 0001364 116.3182 347.2121 15.74133008    11"
                    ]
                },
                {
                    "noradId": "66350",
                    "tle": [
                        "1 66350C 25254C   25329.09840278  .00025800  00000+0  17600-3 0  3295",
                        "2 66350  53.1589   2.5161 0001349  79.9733 262.2165 15.74135741    16"
                    ]
                },
                {
                    "noradId": "66366",
                    "tle": [
                        "1 66366C 25254U   25329.09493056  .00020099  00000+0  13712-3 0  3295",
                        "2 66366  53.1585   2.4721 0001394  76.6627 274.5876 15.74139910    13"
                    ]
                },
                {
                    "noradId": "66367",
                    "tle": [
                        "1 66367C 25254V   25329.09631944  .00035002  00000+0  23880-3 0  3293",
                        "2 66367  53.1585   2.4572 0001200  85.7364 277.2314 15.74125128    16"
                    ]
                },
                {
                    "noradId": "66365",
                    "tle": [
                        "1 66365C 25254T   25329.09562500  .00030365  00000+0  20714-3 0  3292",
                        "2 66365  53.1585   2.4654 0001355  79.9886 277.1220 15.74131408    13"
                    ]
                },
                {
                    "noradId": "66348",
                    "tle": [
                        "1 66348C 25254A   25329.09701389  .00037400  00000+0  25519-3 0  3298",
                        "2 66348  53.1590   2.5315 0001051  89.6839 240.8087 15.74120424    18"
                    ]
                },
                {
                    "noradId": "66352",
                    "tle": [
                        "1 66352C 25254E   25329.09493056  .00020047  00000+0  13676-3 0  3292",
                        "2 66352  53.1591   2.5249 0001327  65.5519 260.7775 15.74141113    17"
                    ]
                },
                {
                    "noradId": "66363",
                    "tle": [
                        "1 66363C 25254R   25329.11854167  .00040347  00000+0  27526-3 0  3295",
                        "2 66363  53.1586   2.3670 0001146  81.7065  37.6831 15.74120554    14"
                    ]
                },
                {
                    "noradId": "66361",
                    "tle": [
                        "1 66361C 25254P   25329.11368056  .00033017  00000+0  22523-3 0  3298",
                        "2 66361  53.1587   2.3996 0001338 116.2692 331.7198 15.74129508    19"
                    ]
                },
                {
                    "noradId": "70745",
                    "tle": [
                        "1 70745C 25254P   25322.87965278 -.01684500  00000+0 -88108-2 0  3229",
                        "2 70745  53.1573  33.3988 0000860  71.6773 276.2545 15.81838302    19"
                    ]
                },
                {
                    "noradId": "66370",
                    "tle": [
                        "1 66370C 25254Y   25329.09631944  .00038245  00000+0  26094-3 0  3299",
                        "2 66370  53.1582   2.4448 0001273 105.4092 263.3099 15.74119670    18"
                    ]
                },
                {
                    "noradId": "66369",
                    "tle": [
                        "1 66369C 25254X   25329.11159722  .00030335  00000+0  20696-3 0  3293",
                        "2 66369  53.1583   2.3766 0001046  92.0631 359.4489 15.74129904    18"
                    ]
                },
                {
                    "noradId": "66368",
                    "tle": [
                        "1 66368C 25254W   25329.11437500  .00035784  00000+0  24410-3 0  3296",
                        "2 66368  53.1582   2.3586 0001210 100.9679   8.2117 15.74127357    17"
                    ]
                },
                {
                    "noradId": "66373",
                    "tle": [
                        "1 66373C 25254AB  25329.11298611  .00017849  00000+0  12175-3 0  3297",
                        "2 66373  53.1582   2.3496 0001299  76.7565  32.2072 15.74145281    17"
                    ]
                },
                {
                    "noradId": "66355",
                    "tle": [
                        "1 66355C 25254H   25329.09909722  .00023906  00000+0  16310-3 0  3292",
                        "2 66355  53.1588   2.4924 0001213  76.8538 278.8550 15.74136244    15"
                    ]
                },
                {
                    "noradId": "66355",
                    "tle": [
                        "1 66355C 25254H   25329.09909722  .00023906  00000+0  16310-3 0  3292",
                        "2 66355  53.1588   2.4924 0001213  76.8538 278.8550 15.74136244    15"
                    ]
                },
                {
                    "noradId": "66354",
                    "tle": [
                        "1 66354C 25254G   25329.09215278  .00031038  00000+0  21175-3 0  3297",
                        "2 66354  53.1588   2.5300 0001296 105.8810 208.5387 15.74129851    14"
                    ]
                },
                {
                    "noradId": "66354",
                    "tle": [
                        "1 66354C 25254G   25329.09215278  .00031038  00000+0  21175-3 0  3297",
                        "2 66354  53.1588   2.5300 0001296 105.8810 208.5387 15.74129851    14"
                    ]
                },
                {
                    "noradId": "66351",
                    "tle": [
                        "1 66351C 25254D   25329.09840278  .00016727  00000+0  11413-3 0  3290",
                        "2 66351  53.1590   2.5118 0001254  65.0282 279.0736 15.74141308    17"
                    ]
                },
                {
                    "noradId": "66351",
                    "tle": [
                        "1 66351C 25254D   25329.09840278  .00016727  00000+0  11413-3 0  3290",
                        "2 66351  53.1590   2.5118 0001254  65.0282 279.0736 15.74141308    17"
                    ]
                },
                {
                    "noradId": "66351",
                    "tle": [
                        "1 66351C 25254D   25329.09840278  .00016727  00000+0  11413-3 0  3290",
                        "2 66351  53.1590   2.5118 0001254  65.0282 279.0736 15.74141308    17"
                    ]
                },
                {
                    "noradId": "66351",
                    "tle": [
                        "1 66351C 25254D   25329.09840278  .00016727  00000+0  11413-3 0  3290",
                        "2 66351  53.1590   2.5118 0001254  65.0282 279.0736 15.74141308    17"
                    ]
                },
                {
                    "noradId": "70732",
                    "tle": [
                        "1 70732C 25254A   25322.88243056 -.01440700  00000+0 -73599-2 0  3229",
                        "2 70732  53.1577  33.4488 0000963  69.9563 263.6086 15.82102291    18"
                    ]
                }
            ]
        }
    ],
    "config": {}
}